39074,GLOBALSTAR M094,2013,114.08,700.0,+,52.0,Active,1,LEO,Kazakhstan,Globalstar,Commercial,Communications,Soyuz,1 39074U 13005C   25109.89721227 -.00000083  00000+0  11750-3 0  9995,2 39074  51.9989 359.5916 0000976  99.8596 260.2381 12.62269875565019,12.62269875,9.76e-05,LEO
39075,GLOBALSTAR M096,2013,114.08,700.0,+,52.01,Active,1,LEO,Kazakhstan,Globalstar,Commercial,Communications,Soyuz,1 39075U 13005D   25110.30639518 -.00000088  00000+0  87233-4 0  9990,2 39075  52.0090  46.8129 0000778  84.8646 275.2309 12.62270262564339,12.62270262,7.78e-05,LEO
39076,GLOBALSTAR M078,2013,114.08,700.0,+,51.98,Active,1,LEO,Kazakhstan,Globalstar,Commercial,Communications,Soyuz,1 39076U 13005E   25110.51715655 -.00000108  00000+0 -25834-4 0  9994,2 39076  51.9846 130.7594 0001134  62.2701 297.8280 12.62261474562842,12.62261474,0.0001134,LEO
39077,GLOBALSTAR M095,2013,114.08,700.0,+,51.98,Active,1,LEO,Kazakhstan,Globalstar,Commercial,Communications,Soyuz,1 39077U 13005F   25110.46455983 -.00000098  00000+0  33115-4 0  9992,2 39077  51.9773 128.1460 0000753  89.0495 271.0458 12.62269278562849,12.62269278,7.53e-05,LEO
52888,GLOBALSTAR M087,2022,114.08,715.0,+,51.98,Active,1,LEO,USA,USA,Commercial,Communications,Falcon,1 52888U 22064A   25109.78253119 -.00000073  00000+0  17011-3 0  9991,2 52888  51.9787 271.6266 0000926 103.7540 256.3430 12.62271091137664,12.62271091,9.26e-05,LEO
